sat01608
1 01608U 64083H   20046.48289560  .00000330  00000-0  29906-3 0  9995
2 01608  89.8019 123.4992 0017322 314.8470 105.2504 13.81711698755081
